SL-3 R/B                
1 13403U 82079B   26082.97174397  .00005704  00000+0  22553-3 0  9997
2 13403  81.1484 176.2148 0025454 117.6891 242.6929 15.24993740379873
SL-14 R/B               
1 13553U 82092B   26082.59301396  .00000411  00000+0  43416-4 0  9999
2 13553  82.5668 128.3940 0018822 253.7794 258.9968 14.86678489330991
SL-3 R/B                
1 13819U 83010B   26082.99457179  .00016388  00000+0  32391-3 0  9999
2 13819  81.1052 344.7056 0016530   3.1814 356.9533 15.46841500360155
SL-3 R/B                
1 14208U 83075B   26082.93018615  .00011279  00000+0  29438-3 0  9997
2 14208  97.6146  88.0505 0021674 173.4279 186.7254 15.38747541332342
COSMOS 1536             
1 14699U 84013A   26082.31206152  .00008306  00000+0  34086-3 0  9993
2 14699  82.5418  94.3036 0012814 229.0949 130.9179 15.24002720274696
SL-14 R/B               
1 14820U 84027B   26082.90126847  .00000514  00000+0  56015-4 0  9991
2 14820  82.5405 231.6819 0016539 287.9081  72.0332 14.85990556249745
SL-8 R/B                
1 15483U 85006B   26082.70333428  .00000324  00000+0  11613-3 0  9991
2 15483  74.0442 235.3596 0017874 149.3155 221.8578 14.37793161156043
SL-12 R/B(2)            
1 15772U 85042D   26082.97448234  .00000155  00000+0  91214-4 0  9991
2 15772  71.1076  57.5462 0032859 104.4560 317.3807 14.21986231116422
SL-14 R/B               
1 15945U 85069B   26082.88173236  .00000529  00000+0  56952-4 0  9994
2 15945  82.5303  11.5911 0019714 141.5488 218.7138 14.86448173174949
SL-16 R/B               
1 16182U 85097B   26082.84851042  .00000189  00000+0  11873-3 0  9997
2 16182  71.0011 110.7452 0009543 243.0320 289.2997 14.16602537 89238
SL-14 R/B               
1 16496U 86006B   26082.92244557  .00000814  00000+0  83926-4 0  9996
2 16496  82.5243 246.3380 0075458 224.7448 134.7667 14.86835447151324
COSMOS 1743             
1 16719U 86034A   26082.95466962  .00042683  00000+0  53262-3 0  9993
2 16719  82.5304  58.8454 0003235 187.8112 172.3095 15.59683616182472
