CCSDS_OMM_VERS = 2.0
CREATION_DATE  = 
ORIGINATOR     = 

OBJECT_NAME    = SL-3 R/B
OBJECT_ID      = 1982-079B
CENTER_NAME    = EARTH
REF_FRAME      = TEME
TIME_SYSTEM    = UTC
MEAN_ELEMENT_THEORY = SGP/SGP4

EPOCH          = 2026-03-23T23:19:18.679008
MEAN_MOTION    = 15.24993740
ECCENTRICITY   = .0025454
INCLINATION    = 81.1484
RA_OF_ASC_NODE = 176.2148
ARG_OF_PERICENTER = 117.6891
MEAN_ANOMALY   = 242.6929

EPHEMERIS_TYPE = 0
CLASSIFICATION_TYPE = U
NORAD_CAT_ID   = 13403
ELEMENT_SET_NO = 999
REV_AT_EPOCH   = 37987
BSTAR          = .22552993E-3
MEAN_MOTION_DOT = .5704E-4
MEAN_MOTION_DDOT = 0

CCSDS_OMM_VERS = 2.0
CREATION_DATE  = 
ORIGINATOR     = 

OBJECT_NAME    = SL-14 R/B
OBJECT_ID      = 1982-092B
CENTER_NAME    = EARTH
REF_FRAME      = TEME
TIME_SYSTEM    = UTC
MEAN_ELEMENT_THEORY = SGP/SGP4

EPOCH          = 2026-03-23T14:13:56.406144
MEAN_MOTION    = 14.86678489
ECCENTRICITY   = .00188224
INCLINATION    = 82.5668
RA_OF_ASC_NODE = 128.3940
ARG_OF_PERICENTER = 253.7794
MEAN_ANOMALY   = 258.9968

EPHEMERIS_TYPE = 0
CLASSIFICATION_TYPE = U
NORAD_CAT_ID   = 13553
ELEMENT_SET_NO = 999
REV_AT_EPOCH   = 33099
BSTAR          = .43416368E-4
MEAN_MOTION_DOT = .411E-5
MEAN_MOTION_DDOT = 0

CCSDS_OMM_VERS = 2.0
CREATION_DATE  = 
ORIGINATOR     = 

OBJECT_NAME    = SL-3 R/B
OBJECT_ID      = 1983-010B
CENTER_NAME    = EARTH
REF_FRAME      = TEME
TIME_SYSTEM    = UTC
MEAN_ELEMENT_THEORY = SGP/SGP4

EPOCH          = 2026-03-23T23:52:11.002656
MEAN_MOTION    = 15.46841500
ECCENTRICITY   = .00165302
INCLINATION    = 81.1052
RA_OF_ASC_NODE = 344.7056
ARG_OF_PERICENTER = 3.1814
MEAN_ANOMALY   = 356.9533

EPHEMERIS_TYPE = 0
CLASSIFICATION_TYPE = U
NORAD_CAT_ID   = 13819
ELEMENT_SET_NO = 999
REV_AT_EPOCH   = 36015
BSTAR          = .32391334E-3
MEAN_MOTION_DOT = .16388E-3
MEAN_MOTION_DDOT = 0

CCSDS_OMM_VERS = 2.0
CREATION_DATE  = 
ORIGINATOR     = 

OBJECT_NAME    = SL-3 R/B
OBJECT_ID      = 1983-075B
CENTER_NAME    = EARTH
REF_FRAME      = TEME
TIME_SYSTEM    = UTC
MEAN_ELEMENT_THEORY = SGP/SGP4

EPOCH          = 2026-03-23T22:19:28.083360
MEAN_MOTION    = 15.38747541
ECCENTRICITY   = .00216748
INCLINATION    = 97.6146
RA_OF_ASC_NODE = 88.0505
ARG_OF_PERICENTER = 173.4279
MEAN_ANOMALY   = 186.7254

EPHEMERIS_TYPE = 0
CLASSIFICATION_TYPE = U
NORAD_CAT_ID   = 14208
ELEMENT_SET_NO = 999
REV_AT_EPOCH   = 33234
BSTAR          = .29437867E-3
MEAN_MOTION_DOT = .11279E-3
MEAN_MOTION_DDOT = 0

CCSDS_OMM_VERS = 2.0
CREATION_DATE  = 
ORIGINATOR     = 

OBJECT_NAME    = COSMOS 1536
OBJECT_ID      = 1984-013A
CENTER_NAME    = EARTH
REF_FRAME      = TEME
TIME_SYSTEM    = UTC
MEAN_ELEMENT_THEORY = SGP/SGP4

EPOCH          = 2026-03-23T07:29:22.115328
MEAN_MOTION    = 15.24002720
ECCENTRICITY   = .0012814
INCLINATION    = 82.5418
RA_OF_ASC_NODE = 94.3036
ARG_OF_PERICENTER = 229.0949
MEAN_ANOMALY   = 130.9179

EPHEMERIS_TYPE = 0
CLASSIFICATION_TYPE = U
NORAD_CAT_ID   = 14699
ELEMENT_SET_NO = 999
REV_AT_EPOCH   = 27469
BSTAR          = .34086E-3
MEAN_MOTION_DOT = .8306E-4
MEAN_MOTION_DDOT = 0

CCSDS_OMM_VERS = 2.0
CREATION_DATE  = 
ORIGINATOR     = 

OBJECT_NAME    = SL-14 R/B
OBJECT_ID      = 1984-027B
CENTER_NAME    = EARTH
REF_FRAME      = TEME
TIME_SYSTEM    = UTC
MEAN_ELEMENT_THEORY = SGP/SGP4

EPOCH          = 2026-03-23T21:37:49.595808
MEAN_MOTION    = 14.85990556
ECCENTRICITY   = .00165392
INCLINATION    = 82.5405
RA_OF_ASC_NODE = 231.6819
ARG_OF_PERICENTER = 287.9081
MEAN_ANOMALY   = 72.0332

EPHEMERIS_TYPE = 0
CLASSIFICATION_TYPE = U
NORAD_CAT_ID   = 14820
ELEMENT_SET_NO = 999
REV_AT_EPOCH   = 24974
BSTAR          = .56015005E-4
MEAN_MOTION_DOT = .514E-5
MEAN_MOTION_DDOT = 0

CCSDS_OMM_VERS = 2.0
CREATION_DATE  = 
ORIGINATOR     = 

OBJECT_NAME    = SL-8 R/B
OBJECT_ID      = 1985-006B
CENTER_NAME    = EARTH
REF_FRAME      = TEME
TIME_SYSTEM    = UTC
MEAN_ELEMENT_THEORY = SGP/SGP4

EPOCH          = 2026-03-23T16:52:48.081792
MEAN_MOTION    = 14.37793161
ECCENTRICITY   = .00178747
INCLINATION    = 74.0442
RA_OF_ASC_NODE = 235.3596
ARG_OF_PERICENTER = 149.3155
MEAN_ANOMALY   = 221.8578

EPHEMERIS_TYPE = 0
CLASSIFICATION_TYPE = U
NORAD_CAT_ID   = 15483
ELEMENT_SET_NO = 999
REV_AT_EPOCH   = 15604
BSTAR          = .1161298E-3
MEAN_MOTION_DOT = .324E-5
MEAN_MOTION_DDOT = 0

CCSDS_OMM_VERS = 2.0
CREATION_DATE  = 
ORIGINATOR     = 

OBJECT_NAME    = SL-12 R/B(2)
OBJECT_ID      = 1985-042D
CENTER_NAME    = EARTH
REF_FRAME      = TEME
TIME_SYSTEM    = UTC
MEAN_ELEMENT_THEORY = SGP/SGP4

EPOCH          = 2026-03-23T23:23:15.274176
MEAN_MOTION    = 14.21986231
ECCENTRICITY   = .00328592
INCLINATION    = 71.1076
RA_OF_ASC_NODE = 57.5462
ARG_OF_PERICENTER = 104.4560
MEAN_ANOMALY   = 317.3807

EPHEMERIS_TYPE = 0
CLASSIFICATION_TYPE = U
NORAD_CAT_ID   = 15772
ELEMENT_SET_NO = 999
REV_AT_EPOCH   = 11642
BSTAR          = .91213806E-4
MEAN_MOTION_DOT = .155E-5
MEAN_MOTION_DDOT = 0

CCSDS_OMM_VERS = 2.0
CREATION_DATE  = 
ORIGINATOR     = 

OBJECT_NAME    = SL-14 R/B
OBJECT_ID      = 1985-069B
CENTER_NAME    = EARTH
REF_FRAME      = TEME
TIME_SYSTEM    = UTC
MEAN_ELEMENT_THEORY = SGP/SGP4

EPOCH          = 2026-03-23T21:09:41.675904
MEAN_MOTION    = 14.86448173
ECCENTRICITY   = .00197149
INCLINATION    = 82.5303
RA_OF_ASC_NODE = 11.5911
ARG_OF_PERICENTER = 141.5488
MEAN_ANOMALY   = 218.7138

EPHEMERIS_TYPE = 0
CLASSIFICATION_TYPE = U
NORAD_CAT_ID   = 15945
ELEMENT_SET_NO = 999
REV_AT_EPOCH   = 17494
BSTAR          = .56952406E-4
MEAN_MOTION_DOT = .529E-5
MEAN_MOTION_DDOT = 0

CCSDS_OMM_VERS = 2.0
CREATION_DATE  = 
ORIGINATOR     = 

OBJECT_NAME    = SL-16 R/B
OBJECT_ID      = 1985-097B
CENTER_NAME    = EARTH
REF_FRAME      = TEME
TIME_SYSTEM    = UTC
MEAN_ELEMENT_THEORY = SGP/SGP4

EPOCH          = 2026-03-23T20:21:51.300288
MEAN_MOTION    = 14.16602537
ECCENTRICITY   = .00095437
INCLINATION    = 71.0011
RA_OF_ASC_NODE = 110.7452
ARG_OF_PERICENTER = 243.0320
MEAN_ANOMALY   = 289.2997

EPHEMERIS_TYPE = 0
CLASSIFICATION_TYPE = U
NORAD_CAT_ID   = 16182
ELEMENT_SET_NO = 999
REV_AT_EPOCH   = 8923
BSTAR          = .11873142E-3
MEAN_MOTION_DOT = .189E-5
MEAN_MOTION_DDOT = 0

CCSDS_OMM_VERS = 2.0
CREATION_DATE  = 
ORIGINATOR     = 

OBJECT_NAME    = SL-14 R/B
OBJECT_ID      = 1986-006B
CENTER_NAME    = EARTH
REF_FRAME      = TEME
TIME_SYSTEM    = UTC
MEAN_ELEMENT_THEORY = SGP/SGP4

EPOCH          = 2026-03-23T22:08:19.297248
MEAN_MOTION    = 14.86835447
ECCENTRICITY   = .00754581
INCLINATION    = 82.5243
RA_OF_ASC_NODE = 246.3380
ARG_OF_PERICENTER = 224.7448
MEAN_ANOMALY   = 134.7667

EPHEMERIS_TYPE = 0
CLASSIFICATION_TYPE = U
NORAD_CAT_ID   = 16496
ELEMENT_SET_NO = 999
REV_AT_EPOCH   = 15132
BSTAR          = .83926175E-4
MEAN_MOTION_DOT = .814E-5
MEAN_MOTION_DDOT = 0

CCSDS_OMM_VERS = 2.0
CREATION_DATE  = 
ORIGINATOR     = 

OBJECT_NAME    = COSMOS 1743
OBJECT_ID      = 1986-034A
CENTER_NAME    = EARTH
REF_FRAME      = TEME
TIME_SYSTEM    = UTC
MEAN_ELEMENT_THEORY = SGP/SGP4

EPOCH          = 2026-03-23T22:54:43.455168
MEAN_MOTION    = 15.59683616
ECCENTRICITY   = .00032357
INCLINATION    = 82.5304
RA_OF_ASC_NODE = 58.8454
ARG_OF_PERICENTER = 187.8112
MEAN_ANOMALY   = 172.3095

EPHEMERIS_TYPE = 0
CLASSIFICATION_TYPE = U
NORAD_CAT_ID   = 16719
ELEMENT_SET_NO = 999
REV_AT_EPOCH   = 18247
BSTAR          = .53261671E-3
MEAN_MOTION_DOT = .42683E-3
MEAN_MOTION_DDOT = 0

